{
    "links": {
        "self": "http://www.neowsapp.com/rest/v1/neo/3666429?api_key=iIulBulltgU6a56xZRHN4H3l9WmuAYTsLGpBGhQ2"
    },
    "id": "3666429",
    "neo_reference_id": "3666429",
    "name": "(2014 FX6)",
    "designation": "2014 FX6",
    "nasa_jpl_url": "http://ssd.jpl.nasa.gov/sbdb.cgi?sstr=3666429",
    "absolute_magnitude_h": 24.8,
    "estimated_diameter": {
        "kilometers": {
            "estimated_diameter_min": 0.0291443905,
            "estimated_diameter_max": 0.0651688382
        },
        "meters": {
            "estimated_diameter_min": 29.1443904535,
            "estimated_diameter_max": 65.1688382168
        },
        "miles": {
            "estimated_diameter_min": 0.018109479,
            "estimated_diameter_max": 0.0404940262
        },
        "feet": {
            "estimated_diameter_min": 95.6180819754,
            "estimated_diameter_max": 213.8085311752
        }
    },
    "is_potentially_hazardous_asteroid": false,
    "close_approach_data": [
        {
            "close_approach_date": "2014-03-14",
            "close_approach_date_full": "2014-Mar-14 00:06",
            "epoch_date_close_approach": 1394755560000,
            "relative_velocity": {
                "kilometers_per_second": "12.3021584464",
                "kilometers_per_hour": "44287.7704069745",
                "miles_per_hour": "27518.6982287114"
            },
            "miss_distance": {
                "astronomical": "0.0539604382",
                "lunar": "20.9906104598",
                "kilometers": "8072366.618986634",
                "miles": "5015936.0249941892"
            },
            "orbiting_body": "Earth"
        },
        {
            "close_approach_date": "2014-05-29",
            "close_approach_date_full": "2014-May-29 17:58",
            "epoch_date_close_approach": 1401386280000,
            "relative_velocity": {
                "kilometers_per_second": "13.7672638794",
                "kilometers_per_hour": "49562.1499657716",
                "miles_per_hour": "30795.9925717874"
            },
            "miss_distance": {
                "astronomical": "0.0745957286",
                "lunar": "29.0177384254",
                "kilometers": "11159362.109658082",
                "miles": "6934106.0761702516"
            },
            "orbiting_body": "Mars"
        }
    ],
    "orbital_data": {
        "orbit_id": "7",
        "orbit_determination_date": "2017-04-06 08:41:59",
        "first_observation_date": "2014-03-22",
        "last_observation_date": "2014-04-04",
        "data_arc_in_days": 13,
        "observations_used": 26,
        "orbit_uncertainty": "9",
        "minimum_orbit_intersection": ".00264854",
        "jupiter_tisserand_invariant": "3.904",
        "epoch_osculation": "2456740.5",
        "eccentricity": ".5128601424992341",
        "semi_major_axis": "1.797496509554572",
        "inclination": ".9561344837003151",
        "ascending_node_longitude": "157.5968727381522",
        "orbital_period": "880.2388052032876",
        "perihelion_distance": ".8756321935225385",
        "perihelion_argument": "319.9916291665521",
        "aphelion_distance": "2.719360825586606",
        "perihelion_time": "2456691.246226012496",
        "mean_anomaly": "20.14380476148907",
        "mean_motion": ".4089799243931985",
        "equinox": "J2000",
        "orbit_class": {
            "orbit_class_type": "APO",
            "orbit_class_description": "Near-Earth asteroid orbits which cross the Earth’s orbit similar to that of 1862 Apollo",
            "orbit_class_range": "a (semi-major axis) > 1.0 AU; q (perihelion) < 1.017 AU"
        }
    },
    "is_sentry_object": false
}